start=new Date('2023-02-27T00:00:00.000Z').valueOf();
sats=[{"SITE":"AFETR","RA_OF_ASC_NODE":"295.0621","ARG_OF_PERICENTER":"81.6781","ELEMENT_SET_NO":"999","MEAN_ANOMALY":"278.4344","INCLINATION":"53.0526","ECCENTRICITY":"0.00012010","COUNTRY_CODE":"US","MEAN_MOTION_DOT":"0.00019393","OBJECT_NAME":"STARLINK-1191","GP_ID":"227063330","MEAN_MOTION":"15.06419780","PERIOD":"95.591","PERIAPSIS":"546.321","EPHEMERIS_TYPE":"0","EPOCH":"2023-02-26T22:18:55.606464","RCS_SIZE":"LARGE","SEMIMAJOR_AXIS":"6925.288","REF_FRAME":"TEME","REV_AT_EPOCH":"16858","MEAN_ELEMENT_THEORY":"SGP4","TIME_SYSTEM":"UTC","NORAD_CAT_ID":"45222","OBJECT_ID":"2020-012AW","MEAN_MOTION_DDOT":"0.0000000000000","FILE":"3843368","TLE_LINE2":"2 45222  53.0526 295.0621 0001201  81.6781 278.4344 15.06419780168589","BSTAR":"0.00131650000000","TLE_LINE1":"1 45222U 20012AW  23057.92981026  .00019393  00000-0  13165-2 0  9997","DECAY_DATE":null,"LAUNCH_DATE":"2020-02-17","CLASSIFICATION_TYPE":"U","APOAPSIS":"547.985","CENTER_NAME":"EARTH","OBJECT_TYPE":"PAYLOAD"},{"ARG_OF_PERICENTER":"91.7724","SITE":"AFETR","ELEMENT_SET_NO":"999","RA_OF_ASC_NODE":"298.8193","INCLINATION":"53.0558","MEAN_ANOMALY":"268.3388","ECCENTRICITY":"0.00010750","COUNTRY_CODE":"US","OBJECT_NAME":"STARLINK-1212","MEAN_MOTION_DOT":"0.00021512","GP_ID":"227002924","MEAN_MOTION":"15.06391212","PERIOD":"95.593","PERIAPSIS":"546.496","EPHEMERIS_TYPE":"0","RCS_SIZE":"LARGE","SEMIMAJOR_AXIS":"6925.375","EPOCH":"2023-02-26T02:07:24.628800","REF_FRAME":"TEME","REV_AT_EPOCH":"16846","MEAN_ELEMENT_THEORY":"SGP4","TIME_SYSTEM":"UTC","NORAD_CAT_ID":"45223","OBJECT_ID":"2020-012AX","FILE":"3841853","MEAN_MOTION_DDOT":"0.0000000000000","TLE_LINE2":"2 45223  53.0558 298.8193 0001075  91.7724 268.3388 15.06391212168460","BSTAR":"0.00145900000000","TLE_LINE1":"1 45223U 20012AX  23057.08847950  .00021512  00000-0  14590-2 0  9991","DECAY_DATE":null,"LAUNCH_DATE":"2020-02-17","APOAPSIS":"547.985","CLASSIFICATION_TYPE":"U","CENTER_NAME":"EARTH","OBJECT_TYPE":"PAYLOAD"},{"CLASSIFICATION_TYPE":"U","APOAPSIS":"547.994","CENTER_NAME":"EARTH","OBJECT_TYPE":"PAYLOAD","TLE_LINE1":"1 45225U 20012AZ  23057.04149949 -.00002972  00000-0 -18076-3 0  9997","DECAY_DATE":null,"LAUNCH_DATE":"2020-02-17","FILE":"3841853","MEAN_MOTION_DDOT":"0.0000000000000","BSTAR":"-0.00018076000000","TLE_LINE2":"2 45225  53.0523 299.0472 0001071  84.8869 275.2242 15.06387421168403","TIME_SYSTEM":"UTC","MEAN_ELEMENT_THEORY":"SGP4","NORAD_CAT_ID":"45225","OBJECT_ID":"2020-012AZ","EPOCH":"2023-02-26T00:59:45.555936","SEMIMAJOR_AXIS":"6925.387","RCS_SIZE":"LARGE","REF_FRAME":"TEME","REV_AT_EPOCH":"16840","PERIOD":"95.593","PERIAPSIS":"546.510","EPHEMERIS_TYPE":"0","ECCENTRICITY":"0.00010710","COUNTRY_CODE":"US","MEAN_MOTION_DOT":"-0.00002972","OBJECT_NAME":"STARLINK-1215","GP_ID":"227003174","MEAN_MOTION":"15.06387421","RA_OF_ASC_NODE":"299.0472","SITE":"AFETR","ARG_OF_PERICENTER":"84.8869","ELEMENT_SET_NO":"999","INCLINATION":"53.0523","MEAN_ANOMALY":"275.2242"},{"TLE_LINE1":"1 45226U 20012BA  23057.91138193  .00015792  00000-0  10765-2 0  9991","DECAY_DATE":null,"LAUNCH_DATE":"2020-02-17","CLASSIFICATION_TYPE":"U","APOAPSIS":"547.858","CENTER_NAME":"EARTH","OBJECT_TYPE":"PAYLOAD","MEAN_ELEMENT_THEORY":"SGP4","TIME_SYSTEM":"UTC","NORAD_CAT_ID":"45226","OBJECT_ID":"2020-012BA","MEAN_MOTION_DDOT":"0.0000000000000","FILE":"3843368","BSTAR":"0.00107650000000","TLE_LINE2":"2 45226  53.0515 295.1427 0000960  95.7845 264.3253 15.06406567168496","PERIOD":"95.592","PERIAPSIS":"546.529","EPHEMERIS_TYPE":"0","EPOCH":"2023-02-26T21:52:23.398752","SEMIMAJOR_AXIS":"6925.328","RCS_SIZE":"LARGE","REF_FRAME":"TEME","REV_AT_EPOCH":"16849","SITE":"AFETR","ARG_OF_PERICENTER":"95.7845","RA_OF_ASC_NODE":"295.1427","ELEMENT_SET_NO":"999","INCLINATION":"53.0515","MEAN_ANOMALY":"264.3253","ECCENTRICITY":"0.00009600","COUNTRY_CODE":"US","OBJECT_NAME":"STARLINK-1217","MEAN_MOTION_DOT":"0.00015792","GP_ID":"227063079","MEAN_MOTION":"15.06406567"},{"EPOCH":"2023-02-26T22:24:14.336064","SEMIMAJOR_AXIS":"6925.299","RCS_SIZE":"LARGE","REF_FRAME":"TEME","REV_AT_EPOCH":"16850","PERIOD":"95.591","PERIAPSIS":"546.286","EPHEMERIS_TYPE":"0","ECCENTRICITY":"0.00012670","COUNTRY_CODE":"US","OBJECT_NAME":"STARLINK-1221","MEAN_MOTION_DOT":"0.00017160","GP_ID":"227063831","MEAN_MOTION":"15.06416239","RA_OF_ASC_NODE":"295.0436","SITE":"AFETR","ARG_OF_PERICENTER":"85.4595","ELEMENT_SET_NO":"999","INCLINATION":"53.0507","MEAN_ANOMALY":"274.6539","CLASSIFICATION_TYPE":"U","APOAPSIS":"548.041","CENTER_NAME":"EARTH","OBJECT_TYPE":"PAYLOAD","TLE_LINE1":"1 45227U 20012BB  23057.93349926  .00017160  00000-0  11676-2 0  9995","DECAY_DATE":null,"LAUNCH_DATE":"2020-02-17","MEAN_MOTION_DDOT":"0.0000000000000","FILE":"3843368","BSTAR":"0.00116760000000","TLE_LINE2":"2 45227  53.0507 295.0436 0001267  85.4595 274.6539 15.06416239168506","MEAN_ELEMENT_THEORY":"SGP4","TIME_SYSTEM":"UTC","NORAD_CAT_ID":"45227","OBJECT_ID":"2020-012BB"},{"CLASSIFICATION_TYPE":"U","APOAPSIS":"547.930","OBJECT_TYPE":"PAYLOAD","CENTER_NAME":"EARTH","TLE_LINE1":"1 45228U 20012BC  23057.93718118  .00017782  00000-0  12091-2 0  9991","LAUNCH_DATE":"2020-02-17","DECAY_DATE":null,"BSTAR":"0.00120910000000","TLE_LINE2":"2 45228  53.0530 295.0263 0001110  80.7375 279.3739 15.06417112168473","FILE":"3843368","MEAN_MOTION_DDOT":"0.0000000000000","NORAD_CAT_ID":"45228","MEAN_ELEMENT_THEORY":"SGP4","TIME_SYSTEM":"UTC","OBJECT_ID":"2020-012BC","REF_FRAME":"TEME","EPOCH":"2023-02-26T22:29:32.453952","SEMIMAJOR_AXIS":"6925.296","RCS_SIZE":"LARGE","REV_AT_EPOCH":"16847","PERIOD":"95.591","EPHEMERIS_TYPE":"0","PERIAPSIS":"546.392","MEAN_MOTION_DOT":"0.00017782","OBJECT_NAME":"STARLINK-1222","ECCENTRICITY":"0.00011100","COUNTRY_CODE":"US","MEAN_MOTION":"15.06417112","GP_ID":"227064049","INCLINATION":"53.0530","MEAN_ANOMALY":"279.3739","SITE":"AFETR","ELEMENT_SET_NO":"999","ARG_OF_PERICENTER":"80.7375","RA_OF_ASC_NODE":"295.0263"},{"EPOCH":"2023-02-26T02:30:00.078048","RCS_SIZE":"LARGE","SEMIMAJOR_AXIS":"6925.354","REF_FRAME":"TEME","REV_AT_EPOCH":"16835","PERIOD":"95.592","PERIAPSIS":"546.421","EPHEMERIS_TYPE":"0","COUNTRY_CODE":"US","ECCENTRICITY":"0.00011520","MEAN_MOTION_DOT":"0.00012678","OBJECT_NAME":"STARLINK-1226","GP_ID":"227003675","MEAN_MOTION":"15.06398371","RA_OF_ASC_NODE":"298.7646","SITE":"AFETR","ARG_OF_PERICENTER":"53.6174","ELEMENT_SET_NO":"999","MEAN_ANOMALY":"306.4921","INCLINATION":"53.0521","CLASSIFICATION_TYPE":"U","APOAPSIS":"548.016","CENTER_NAME":"EARTH","OBJECT_TYPE":"PAYLOAD","TLE_LINE1":"1 45229U 20012BD  23057.10416757  .00012678  00000-0  86853-3 0  9992","DECAY_DATE":null,"LAUNCH_DATE":"2020-02-17","MEAN_MOTION_DDOT":"0.0000000000000","FILE":"3841853","BSTAR":"0.00086853000000","TLE_LINE2":"2 45229  53.0521 298.7646 0001152  53.6174 306.4921 15.06398371168358","TIME_SYSTEM":"UTC","MEAN_ELEMENT_THEORY":"SGP4","NORAD_CAT_ID":"45229","OBJECT_ID":"2020-012BD"},{"EPHEMERIS_TYPE":"0","PERIAPSIS":"546.622","PERIOD":"95.592","REV_AT_EPOCH":"16855","REF_FRAME":"TEME","EPOCH":"2023-02-26T15:09:00.559008","SEMIMAJOR_AXIS":"6925.331","RCS_SIZE":"LARGE","MEAN_ANOMALY":"265.9272","INCLINATION":"53.0519","ARG_OF_PERICENTER":"94.1811","SITE":"AFETR","RA_OF_ASC_NODE":"296.4012","ELEMENT_SET_NO":"999","MEAN_MOTION":"15.06405618","GP_ID":"227062579","OBJECT_NAME":"STARLINK-1227","MEAN_MOTION_DOT":"0.00016292","COUNTRY_CODE":"US","ECCENTRICITY":"0.00008290","LAUNCH_DATE":"2020-02-17","DECAY_DATE":null,"TLE_LINE1":"1 45230U 20012BE  23057.63125647  .00016292  00000-0  11099-2 0  9992","OBJECT_TYPE":"PAYLOAD","CENTER_NAME":"EARTH","CLASSIFICATION_TYPE":"U","APOAPSIS":"547.770","OBJECT_ID":"2020-012BE","NORAD_CAT_ID":"45230","TIME_SYSTEM":"UTC","MEAN_ELEMENT_THEORY":"SGP4","TLE_LINE2":"2 45230  53.0519 296.4012 0000829  94.1811 265.9272 15.06405618168550","BSTAR":"0.00110990000000","FILE":"3843368","MEAN_MOTION_DDOT":"0.0000000000000"},{"PERIAPSIS":"546.431","EPHEMERIS_TYPE":"0","PERIOD":"95.592","REV_AT_EPOCH":"16855","RCS_SIZE":"LARGE","SEMIMAJOR_AXIS":"6925.349","EPOCH":"2023-02-26T16:59:06.586368","REF_FRAME":"TEME","SITE":"AFETR","RA_OF_ASC_NODE":"296.0486","ELEMENT_SET_NO":"999","ARG_OF_PERICENTER":"89.5863","INCLINATION":"53.0509","MEAN_ANOMALY":"270.5256","GP_ID":"227063331","MEAN_MOTION":"15.06399909","COUNTRY_CODE":"US","ECCENTRICITY":"0.00011310","OBJECT_NAME":"STARLINK-1235","MEAN_MOTION_DOT":"0.00013677","DECAY_DATE":null,"LAUNCH_DATE":"2020-02-17","TLE_LINE1":"1 45232U 20012BG  23057.70771512  .00013677  00000-0  93526-3 0  9990","CENTER_NAME":"EARTH","OBJECT_TYPE":"PAYLOAD","APOAPSIS":"547.997","CLASSIFICATION_TYPE":"U","OBJECT_ID":"2020-012BG","MEAN_ELEMENT_THEORY":"SGP4","TIME_SYSTEM":"UTC","NORAD_CAT_ID":"45232","FILE":"3843368","MEAN_MOTION_DDOT":"0.0000000000000","TLE_LINE2":"2 45232  53.0509 296.0486 0001131  89.5863 270.5256 15.06399909168553","BSTAR":"0.00093526000000"},{"APOAPSIS":"548.078","CLASSIFICATION_TYPE":"U","CENTER_NAME":"EARTH","OBJECT_TYPE":"PAYLOAD","TLE_LINE1":"1 45233U 20012BH  23057.22395241  .00006200  00000-0  43497-3 0  9995","DECAY_DATE":null,"LAUNCH_DATE":"2020-02-17","FILE":"3839526","MEAN_MOTION_DDOT":"0.0000000000000","BSTAR":"0.00043497000000","TLE_LINE2":"2 45233  53.0544 318.2268 0001176  84.2141 275.8982 15.06383597167254","MEAN_ELEMENT_THEORY":"SGP4","TIME_SYSTEM":"UTC","NORAD_CAT_ID":"45233","OBJECT_ID":"2020-012BH","RCS_SIZE":"LARGE","SEMIMAJOR_AXIS":"6925.399","EPOCH":"2023-02-26T05:22:29.488224","REF_FRAME":"TEME","REV_AT_EPOCH":"16725","PERIOD":"95.593","PERIAPSIS":"546.449","EPHEMERIS_TYPE":"0","ECCENTRICITY":"0.00011760","COUNTRY_CODE":"US","MEAN_MOTION_DOT":"0.00006200","OBJECT_NAME":"STARLINK-1238","GP_ID":"226929688","MEAN_MOTION":"15.06383597","SITE":"AFETR","ARG_OF_PERICENTER":"84.2141","ELEMENT_SET_NO":"999","RA_OF_ASC_NODE":"318.2268","MEAN_ANOMALY":"275.8982","INCLINATION":"53.0544"}];
